NORAD_CAT_ID,OBJECT_NAME,OBJECT_TYPE,EPOCH,MEAN_MOTION,ECCENTRICITY,INCLINATION,RA_OF_ASC_NODE,ARG_OF_PERICENTER,MEAN_ANOMALY,BSTAR,MEAN_MOTION_DOT,MEAN_MOTION_DDOT,TLE_LINE0,TLE_LINE1,TLE_LINE2,SEMIMAJOR_AXIS,PERIOD,APOGEE,PERIGEE,DECAYED
53726.0,STARLINK-4697,PAYLOAD,2023-10-07 08:57:39,15.08840929,0.0001559,53.2168,263.8422,90.9674,269.1496,7.8567e-05,9.63e-06,0.0,0 STARLINK-4697,1 53726U 22107AC  23280.37337474  .00000963  00000-0  78567-4 0  9993,2 53726  53.2168 263.8422 0001559  90.9674 269.1496 15.08840929 60450,6917.878,95.437,540.821,538.664,0.0
53726.0,STARLINK-4697,PAYLOAD,2023-10-08 08:48:26,15.08849049,0.0001547,53.2157,259.3827,94.1734,265.9435,0.00047772,7.325e-05,0.0,0 STARLINK-4697,1 53726U 22107AC  23281.36697409  .00007325  00000-0  47772-3 0  9992,2 53726  53.2157 259.3827 0001547  94.1734 265.9435 15.08849049 61064,6917.853,95.437,540.788,538.648,0.0
53726.0,STARLINK-4697,PAYLOAD,2023-10-09 02:17:41,15.08844889,0.0001474,53.2169,256.1109,96.6447,263.4713,0.00023454,3.447e-05,0.0,0 STARLINK-4697,1 53726U 22107AC  23282.09561690  .00003447  00000-0  23454-3 0  9997,2 53726  53.2169 256.1109 0001474  96.6447 263.4713 15.08844889 60712,6917.865,95.437,540.75,538.711,0.0
53726.0,STARLINK-4697,PAYLOAD,2023-10-09 07:03:50,15.08853154,0.0001409,53.2168,255.2181,88.8929,271.2225,0.00042867,6.543e-05,0.0,0 STARLINK-4697,1 53726U 22107AC  23282.29433458  .00006543  00000-0  42867-3 0  9998,2 53726  53.2168 255.2181 0001409  88.8929 271.2225 15.08853154 61202,6917.84,95.437,540.68,538.73,0.0
53726.0,STARLINK-4697,PAYLOAD,2023-10-09 15:00:46,15.08846972,0.0001581,53.2175,253.733,83.348,276.7692,0.00032312,4.859e-05,0.0,0 STARLINK-4697,1 53726U 22107AC  23282.62553659  .00004859  00000-0  32312-3 0  9993,2 53726  53.2175 253.7330 0001581  83.3480 276.7692 15.08846972 61255,6917.859,95.437,540.818,538.63,0.0
53726.0,STARLINK-4697,PAYLOAD,2023-10-10 02:08:28,15.08840391,0.0001866,53.2175,251.6539,93.0366,267.084,6.0486e-05,6.75e-06,0.0,0 STARLINK-4697,1 53726U 22107AC  23283.08921982  .00000675  00000-0  60486-4 0  9998,2 53726  53.2175 251.6539 0001866  93.0366 267.0840 15.08840391 60863,6917.879,95.438,541.035,538.453,0.0
53726.0,STARLINK-4697,PAYLOAD,2023-10-10 06:54:37,15.08844549,0.0001351,53.2157,250.7594,94.8714,265.2432,0.00012742,1.741e-05,0.0,0 STARLINK-4697,1 53726U 22107AC  23283.28793537  .00001741  00000-0  12742-3 0  9999,2 53726  53.2157 250.7594 0001351  94.8714 265.2432 15.08844549 61350,6917.866,95.437,540.666,538.797,0.0
53726.0,STARLINK-4697,PAYLOAD,2023-10-10 14:51:33,15.08839648,0.0001313,53.2166,249.2728,101.9278,258.1861,3.962e-05,3.43e-06,0.0,0 STARLINK-4697,1 53726U 22107AC  23283.61913835  .00000343  00000-0  39620-4 0  9993,2 53726  53.2166 249.2728 0001313 101.9278 258.1861 15.08839648 61402,6917.881,95.438,540.655,538.838,0.0
53726.0,STARLINK-4697,PAYLOAD,2023-10-11 06:45:25,15.08842315,0.0001503,53.217,246.2982,95.6891,264.4272,0.0001603,2.264e-05,0.0,0 STARLINK-4697,1 53726U 22107AC  23284.28154095  .00002264  00000-0  16030-3 0  9995,2 53726  53.2170 246.2982 0001503  95.6891 264.4272 15.08842315 61048,6917.873,95.437,540.778,538.699,0.0
53726.0,STARLINK-4697,PAYLOAD,2023-10-12 06:36:12,15.08850039,0.0001402,53.2164,241.8383,101.0237,259.0913,0.00036747,5.567e-05,0.0,0 STARLINK-4697,1 53726U 22107AC  23285.27514159  .00005567  00000-0  36747-3 0  9992,2 53726  53.2164 241.8383 0001402 101.0237 259.0913 15.08850039 61652,6917.85,95.437,540.685,538.745,0.0
53726.0,STARLINK-4697,PAYLOAD,2023-10-12 14:33:08,15.08839164,0.0001484,53.2174,240.3511,94.3909,265.7253,0.00015339,2.154e-05,0.0,0 STARLINK-4697,1 53726U 22107AC  23285.60634724  .00002154  00000-0  15339-3 0  9993,2 53726  53.2174 240.3511 0001484  94.3909 265.7253 15.08839164 61242,6917.883,95.438,540.775,538.721,0.0
53726.0,STARLINK-4697,PAYLOAD,2023-10-13 14:23:55,15.08845855,0.0001335,53.2172,235.8906,94.7722,265.3423,0.00023192,3.406e-05,0.0,0 STARLINK-4697,1 53726U 22107AC  23286.59994540  .00003406  00000-0  23192-3 0  9994,2 53726  53.2172 235.8906 0001335  94.7722 265.3423 15.08845855 61855,6917.862,95.437,540.651,538.804,0.0
53726.0,STARLINK-4697,PAYLOAD,2023-10-14 03:06:59,15.08856945,0.0001561,53.217,233.5108,96.5753,263.5417,0.00033924,5.118e-05,0.0,0 STARLINK-4697,1 53726U 22107AC  23287.12986033  .00005118  00000-0  33924-3 0  9998,2 53726  53.2170 233.5108 0001561  96.5753 263.5417 15.08856945 61470,6917.829,95.436,540.773,538.614,0.0
53726.0,STARLINK-4697,PAYLOAD,2023-10-14 06:17:46,15.08861319,0.0001694,53.2175,232.915,97.9906,262.1279,0.00042282,6.451e-05,0.0,0 STARLINK-4697,1 53726U 22107AC  23287.26233807  .00006451  00000-0  42282-3 0  9995,2 53726  53.2175 232.9150 0001694  97.9906 262.1279 15.08861319 61952,6917.815,95.436,540.852,538.508,0.0
53726.0,STARLINK-4697,PAYLOAD,2023-10-14 20:36:15,15.0883217,0.00013,53.2173,230.2409,85.93,274.1841,-0.00011685,-2.147e-05,0.0,0 STARLINK-4697,1 53726U 22107AC  23287.85850905 -.00002147  00000-0 -11685-3 0  9997,2 53726  53.2173 230.2409 0001300  85.9300 274.1841 15.08832170 61587,6917.904,95.438,540.669,538.87,0.0
53726.0,STARLINK-4697,PAYLOAD,2023-10-15 06:08:34,15.08834295,0.0001402,53.2179,228.4551,100.268,259.8471,-4.7176e-06,-3.63e-06,0.0,0 STARLINK-4697,1 53726U 22107AC  23288.25595023 -.00000363  00000-0 -47176-5 0  9993,2 53726  53.2179 228.4551 0001402 100.2680 259.8471 15.08834295 62103,6917.898,95.438,540.733,538.793,0.0
53726.0,STARLINK-4697,PAYLOAD,2023-10-16 04:23:57,15.08849337,0.0001254,53.2174,224.2931,89.2897,270.8239,0.000483,7.409e-05,0.0,0 STARLINK-4697,1 53726U 22107AC  23289.18331008  .00007409  00000-0  48300-3 0  9991,2 53726  53.2174 224.2931 0001254  89.2897 270.8239 15.08849337 61786,6917.852,95.437,540.584,538.849,0.0
53726.0,STARLINK-4697,PAYLOAD,2023-10-16 12:20:53,15.08843664,0.0001268,53.2176,222.8061,91.9901,268.1236,0.00058372,9.015e-05,0.0,0 STARLINK-4697,1 53726U 22107AC  23289.51451284  .00009015  00000-0  58372-3 0  9992,2 53726  53.2176 222.8061 0001268  91.9901 268.1236 15.08843664 61837,6917.869,95.437,540.611,538.857,0.0
53726.0,STARLINK-4697,PAYLOAD,2023-10-16 20:17:49,15.08840301,0.0001536,53.2171,221.3197,76.0401,284.0762,0.00024179,3.562e-05,0.0,0 STARLINK-4697,1 53726U 22107AC  23289.84571501  .00003562  00000-0  24179-3 0  9992,2 53726  53.2171 221.3197 0001536  76.0401 284.0762 15.08840301 62346,6917.879,95.438,540.807,538.682,0.0
53726.0,STARLINK-4697,PAYLOAD,2023-10-17 12:11:40,15.0885156,0.0001697,53.2168,218.3461,76.0139,284.1042,0.00041811,6.375e-05,0.0,0 STARLINK-4697,1 53726U 22107AC  23290.50811123  .00006375  00000-0  41811-3 0  9991,2 53726  53.2168 218.3461 0001697  76.0139 284.1042 15.08851560 62440,6917.845,95.437,540.884,538.536,0.0
53726.0,STARLINK-4697,PAYLOAD,2023-10-18 02:30:09,15.08845525,0.0001552,53.217,215.6715,82.9896,277.1273,0.00018429,2.647e-05,0.0,0 STARLINK-4697,1 53726U 22107AC  23291.10427211  .00002647  00000-0  18429-3 0  9996,2 53726  53.2170 215.6715 0001552  82.9896 277.1273 15.08845525 62533,6917.864,95.437,540.802,538.655,0.0
53726.0,STARLINK-4697,PAYLOAD,2023-10-18 12:02:27,15.08848082,0.0001677,53.2167,213.8864,77.7228,282.3951,0.00028623,4.271e-05,0.0,0 STARLINK-4697,1 53726U 22107AC  23291.50171165  .00004271  00000-0  28623-3 0  9996,2 53726  53.2167 213.8864 0001677  77.7228 282.3951 15.08848082 62131,6917.856,95.437,540.881,538.561,0.0
53726.0,STARLINK-4697,PAYLOAD,2023-10-19 03:56:19,15.08847985,0.0001738,53.2185,210.9123,78.7249,281.3939,0.00020366,2.955e-05,0.0,0 STARLINK-4697,1 53726U 22107AC  23292.16411052  .00002955  00000-0  20366-3 0  9994,2 53726  53.2185 210.9123 0001738  78.7249 281.3939 15.08847985 62236,6917.856,95.437,540.923,538.519,0.0
53726.0,STARLINK-4697,PAYLOAD,2023-10-20 03:47:05,15.08865855,0.0001557,53.2179,206.4518,91.3626,268.7545,0.00045412,6.952e-05,0.0,0 STARLINK-4697,1 53726U 22107AC  23293.15769899  .00006952  00000-0  45412-3 0  9999,2 53726  53.2179 206.4518 0001557  91.3626 268.7545 15.08865855 62380,6917.801,95.436,540.743,538.589,0.0
53726.0,STARLINK-4697,PAYLOAD,2023-10-20 18:05:34,15.08830552,0.0001427,53.2191,203.7763,88.7567,271.3589,-8.0527e-05,-1.569e-05,0.0,0 STARLINK-4697,1 53726U 22107AC  23293.75387559 -.00001569  00000-0 -80527-4 0  9992,2 53726  53.2191 203.7763 0001427  88.7567 271.3589 15.08830552 62470,6917.909,95.438,540.761,538.787,0.0
53726.0,STARLINK-4697,PAYLOAD,2023-10-21 11:34:49,15.08838343,0.000167,53.2182,200.5049,103.4166,256.7013,6.143e-05,6.9e-06,0.0,0 STARLINK-4697,1 53726U 22107AC  23294.48251220  .00000690  00000-0  61430-4 0  9992,2 53726  53.2182 200.5049 0001670 103.4166 256.7013 15.08838343 62589,6917.885,95.438,540.906,538.595,0.0
53726.0,STARLINK-4697,PAYLOAD,2023-10-21 22:42:30,15.08855842,0.0001386,53.2184,198.4275,62.3976,297.7156,0.00036014,5.451e-05,0.0,0 STARLINK-4697,1 53726U 22107AC  23294.94618450  .00005451  00000-0  36014-3 0  9994,2 53726  53.2184 198.4275 0001386  62.3976 297.7156 15.08855842 63119,6917.832,95.437,540.656,538.738,0.0
53726.0,STARLINK-4697,PAYLOAD,2023-10-22 03:28:39,15.08873064,0.0001508,53.2167,197.5307,93.8397,266.2767,0.0010333,0.0001621,0.0,0 STARLINK-4697,1 53726U 22107AC  23295.14490040  .00016210  00000-0  10333-2 0  9990,2 53726  53.2167 197.5307 0001508  93.8397 266.2767 15.08873064 62684,6917.779,95.435,540.688,538.601,0.0
53726.0,STARLINK-4697,PAYLOAD,2023-10-22 22:33:18,15.0883297,0.0001425,53.2164,193.9639,94.8718,265.2437,0.0001491,2.085e-05,0.0,0 STARLINK-4697,1 53726U 22107AC  23295.93979390  .00002085  00000-0  14910-3 0  9998,2 53726  53.2164 193.9639 0001425  94.8718 265.2437 15.08832970 63264,6917.902,95.438,540.753,538.781,0.0
53726.0,STARLINK-4697,PAYLOAD,2023-10-23 00:08:41,15.08816663,0.0001414,53.2165,193.6674,62.8573,297.2563,0.001037,0.00016244,0.0,0 STARLINK-4697,1 53726U 22107AC  23296.00603985  .00016244  00000-0  10370-2 0  9998,2 53726  53.2165 193.6674 0001414  62.8573 297.2563 15.08816663 62819,6917.952,95.439,540.795,538.839,0.0
